TAURUS-1 (JINNIUZUO 1)  
1 44530U 19059C   26009.21365891  .00006606  00000+0  11170-2 0  9991
2 44530  98.6241 164.5941 0008888  90.3111 269.9111 14.69697501335272
ZHUHAI-1 03B            
1 44536U 19060C   26009.22004095  .00030920  00000+0  68755-3 0  9994
2 44536  97.5348 159.8170 0010095 177.0955 183.0353 15.43557317351711
ZHUHAI-1 03C            
1 44537U 19060D   26009.33325729  .00076177  00000+0  91049-3 0  9993
2 44537  97.5520 167.3339 0011889 136.5798 223.6398 15.60677807352191
ZHUHAI-1 03D            
1 44538U 19060E   26009.28343440  .00032762  00000+0  81976-3 0  9998
2 44538  97.5193 153.3692 0009719 159.9828 200.1801 15.39992482351549
ZHUHAI-1 03E            
1 44539U 19060F   26009.30360455  .00024558  00000+0  73746-3 0  9997
2 44539  97.5396 154.7057 0006244 228.9859 131.0844 15.34409709351343
ATLAS 5 CENTAUR DEB     
1 44694U 18079BG  26003.15056826 -.00000142  00000+0  00000+0 0  9992
2 44694  13.4455  52.7905 4749094 272.4919  35.9038  1.77426156 43633
GAOFEN-7                
1 44703U 19072A   26009.29720447  .00000869  00000+0  41822-4 0  9992
2 44703  97.2664  76.5510 0012444 229.5388 130.4764 15.21259320343487
JILIN-1 GAOFEN 2A       
1 44777U 19075A   26009.27621740  .00016539  00000+0  50026-3 0  9996
2 44777  97.5109  89.8461 0006040 297.0451  63.0174 15.34266038340473
NINGXIA-1 1             
1 44779U 19076A   26009.27520491  .00000013  00000+0  93023-4 0  9995
2 44779  45.0038 169.9862 0011057 126.6256 233.5596 14.02011108315556
NINGXIA-1 5             
1 44783U 19076E   26009.28888539  .00000049  00000+0  11656-3 0  9991
2 44783  45.0033 169.2727 0010743 114.7016 245.4937 14.01995271315475
KL-ALPHA A              
1 44785U 19077A   26009.25351971  .00000051  00000+0  54959-4 0  9993
2 44785  88.9141 240.0306 0009957 205.7938 154.2721 13.56025353304192
CARTOSAT-3              
1 44804U 19081A   26009.29353409  .00004858  00000+0  23332-3 0  9991
2 44804  97.4541  73.5213 0013187 353.1237   6.9815 15.19240374339344
JILIN-1 GAOFEN 2B       
1 44836U 19086A   26009.26219430  .00008424  00000+0  41105-3 0  9994
2 44836  97.5077  82.3574 0015392 149.4251 210.7884 15.18441426336353
ANGELS                  
1 44876U 19092D   26009.09063654  .00067780  00000+0  67644-3 0  9997
2 44876  97.4296 220.2507 0005920  63.0714 297.1149 15.65410653337263
TIANQIN 1 (CAS-6)       
1 44879U 19093A   26009.25986054  .00004671  00000+0  43854-3 0  9994
2 44879  97.7929  94.3029 0010360 217.4474 142.6025 14.94403739328303
ETRSS-1                 
1 44880U 19093B   26009.30503836  .00005315  00000+0  49471-3 0  9992
2 44880  97.7929  94.6874 0010874 218.7753 141.2688 14.94680655328315
TIANYAN 01              
1 44881U 19093C   26009.23839854  .00001586  00000+0  18656-3 0  9994
2 44881  97.7720  85.2516 0012221 248.1496 111.8420 14.86182660327807
TIANYAN 02              
1 44882U 19093D   26009.25361635  .00009904  00000+0  74408-3 0  9993
2 44882  97.7991 102.8157 0014425 195.8981 164.1792 15.02717729328724
CBERS 4A                
1 44883U 19093E   26009.24813703  .00000963  00000+0  12883-3 0  9996
2 44883  97.7707  81.4559 0002195  33.7180 326.4173 14.81645834327548
WEILAI 1R               
1 44884U 19093F   26009.27694189  .00006017  00000+0  50178-3 0  9990
2 44884  97.8005  99.0416 0008244 207.6628 152.4157 14.98946313328609
FLORIPASAT-1            
1 44885U 19093G   26009.30061271  .00007779  00000+0  60194-3 0  9990
2 44885  97.7991 102.6273 0009869 235.0958 124.9339 15.01714738328784
SHUNTIAN                
1 44886U 19093H   26009.28243737  .00003185  00000+0  30277-3 0  9993
2 44886  97.8096  98.3382 0010854 230.7904 129.2353 14.94142469328447
2019-093L               
1 44889U 19093L   26009.25824443  .00003814  00000+0  36798-3 0  9995
2 44889  97.7711  89.4211 0011216 215.5177 144.5297 14.93431852328073
ELEKTRO-L 3             
1 44903U 19095A   26009.08030767 -.00000089  00000+0  00000+0 0  9998
2 44903   0.0064 336.5472 0002695 314.3923 282.5784  1.00271912 22114
GONETS-M 14             
1 44905U 19096A   26009.22537398 -.00000042  00000+0 -37699-3 0  9997
2 44905  82.5228 183.1685 0013910 138.8655 221.3476 12.42901436273934
GONETS-M 15             
1 44906U 19096B   26009.25446311 -.00000025  00000+0 -25042-3 0  9995
2 44906  82.5248 183.5855 0015793 161.4910 198.6748 12.42865604273908
GONETS-M 16             
1 44907U 19096C   26009.28331126  .00000072  00000+0  44975-3 0  9992
2 44907  82.5194 182.5956 0011067 201.6605 158.4008 12.42886245273893
RS-44 & BREEZE-KM R/B   
1 44909U 19096E   26009.29952889  .00000022  00000+0  40364-4 0  9994
2 44909  82.5206  85.2965 0218068 155.6594 205.4996 12.79746640282021
JILIN-1 KUANFU 01       
1 45016U 20003A   26009.27648090  .00004542  00000+0  28266-3 0  9995
2 45016  97.5209  86.3090 0009195 130.6998 229.5031 15.10068842331347
XINGYUN-2 01            
1 45602U 20028A   26009.24884539  .00002964  00000+0  18157-3 0  9994
2 45602  97.4792   4.9801 0010472  38.9921 321.2062 15.10901885310834
XINGYUN-2 02            
1 45603U 20028B   26009.26815196  .00001544  00000+0  96939-4 0  9998
2 45603  97.5097  18.1299 0013040  96.9450 263.3263 15.10693383310837
HAIYANG-1D              
1 45721U 20036A   26009.32569441  .00000329  00000+0  13281-3 0  9992
2 45721  98.4405 314.5996 0001289 272.4891  87.6146 14.34168155292206
M2 PATHFINDER           
1 45727U 20037E   26009.06552494  .00004298  00000+0  31774-3 0  9996
2 45727  97.8135 198.5627 0011504 335.0736  24.9933 15.03704588301573
GAOFEN DUOMO (GFDM)     
1 45856U 20042A   26009.25808891  .00000668  00000+0  10199-3 0  9996
2 45856  97.7986  74.7498 0010511 221.8586 138.1822 14.76888367297556
ZIYUAN 3-03 (ZY 3-03)   
1 45939U 20051A   26009.28012519  .00004867  00000+0  22087-3 0  9999
2 45939  97.3041  81.9770 0004526 155.7120 204.4330 15.21245638303184
TYVAK-0172              
1 46267U 20059C   26009.21292214  .00071784  00000+0  11653-2 0  9995
2 46267  97.7264 246.4750 0002507  92.2394 267.9145 15.52488620293855
ION-MK01                
1 46274U 20061C   26009.15685833  .00070575  00000+0  53383-3 0  9996
2 46274  97.2125  85.4567 0001699 133.5578 226.5827 15.72209165298259
NEMO-HD                 
1 46277U 20061F   26009.29823969  .00012954  00000+0  31577-3 0  9996
2 46277  97.2165  73.0503 0000672 112.0748 248.0570 15.41022888297489
3CAT-5A                 
1 46292U 20061W   26009.14611903  .00014659  00000+0  36184-3 0  9993
2 46292  97.2657  72.6385 0002029  25.5500 334.5846 15.40613745296491
3CAT-5B                 
1 46293U 20061X   26008.73088857  .00020171  00000+0  48165-3 0  9992
2 46293  97.2662  72.9283 0002215  20.8273 339.3064 15.41552000296447
NAPA-1                  
1 46320U 20061BA  26009.32205238  .00040208  00000+0  68115-3 0  9993
2 46320  97.2714  80.1991 0000803  96.1115 264.0229 15.51434650296982
JILIN-1 GAOFEN 3B       
1 46454U 20065A   26009.30212622  .00090071  00000+0  90156-3 0  9991
2 46454  97.2499  64.6056 0002505   5.2193 354.9092 15.65275070295392
JILIN-1 GAOFEN 3E       
1 46457U 20065D   26009.28903678  .00037794  00000+0  69672-3 0  9991
2 46457  97.2562  59.8123 0016712  32.0258 328.2005 15.48889946295057
JILIN-1 GAOFEN 3F       
1 46458U 20065E   26009.25789848  .00034521  00000+0  66404-3 0  9995
2 46458  97.2500  57.6578 0017676  20.1170 340.0773 15.47666803295026
JILIN-1 GAOFEN 3G       
1 46459U 20065F   26009.24723651  .00044820  00000+0  74357-3 0  9994
2 46459  97.2584  62.7063 0013365 281.9556  78.0199 15.51899273295159
JILIN-1 GAOFEN 3H       
1 46460U 20065G   26009.28177745  .00041163  00000+0  70913-3 0  9998
2 46460  97.2517  59.6554 0008471 202.5392 157.5489 15.50917688295139
JILIN-1 GAOFEN 3J       
1 46462U 20065J   26009.28933274  .00079326  00000+0  87049-3 0  9997
2 46462  97.2530  64.1697 0003365 359.2338   0.8915 15.62964808295360
HAIYANG-2C              
1 46469U 20066A   26009.26187646 -.00000248  00000+0 -15096-3 0  9999
2 46469  65.9962 250.9745 0013695 258.6870 101.2660 13.83372778267516
HJ-2A                   
1 46478U 20067A   26009.25168959  .00001109  00000+0  16634-3 0  9999
2 46478  97.8975  91.2893 0004362  66.5232 293.6436 14.76500569284805
HJ-2B                   
1 46479U 20067B   26009.28809765  .00000581  00000+0  90647-4 0  9990
2 46479  97.9033  92.2287 0001267  82.0262 278.1092 14.76496910284818
GONETS-M 17             
1 46486U 20068A   26009.30603282  .00000040  00000+0  21714-3 0  9996
2 46486  82.4969  86.3512 0022607  25.2057 335.0121 12.42866912239427
GONETS-M 18             
1 46487U 20068B   26009.27055346  .00000071  00000+0  43884-3 0  9991
2 46487  82.4922  85.5527 0019929  22.4008 337.7937 12.42894704239404
GONETS-M 19             
1 46488U 20068C   26009.24757624  .00000103  00000+0  67436-3 0  9992
2 46488  82.4947  85.9869 0013913  38.6234 321.5839 12.42886262239505
DEKART                  
1 46493U 20068H   26009.24444377  .00015381  00000+0  48439-3 0  9992
2 46493  97.8746   7.6514 0011753 122.8629 237.3745 15.32957772291381
NORBI                   
1 46494U 20068J   26009.26267310  .00026664  00000+0  65514-3 0  9994
2 46494  97.8685  12.1067 0010170 108.8791 251.3557 15.40588700291673
SALSAT                  
1 46495U 20068K   26008.93058195  .00008629  00000+0  32918-3 0  9990
2 46495  97.8809   2.6824 0011707 133.0452 227.1768 15.26880664291031
ICEYE-X6                
1 46497U 20068M   26009.25028292  .00004299  00000+0  32127-3 0  9994
2 46497  98.0852 355.5576 0006217 262.3168  97.7350 15.03356647289341
NETSAT-4                
1 46504U 20068U   26009.23134865  .00019578  00000+0  52756-3 0  9991
2 46504  97.8614   5.4241 0007137 149.8653 210.3002 15.37850422291294
NETSAT-3                
1 46505U 20068V   26009.23387143  .00020828  00000+0  58695-3 0  9999
2 46505  97.8641   3.8919 0006299 163.5511 196.5937 15.36449109291223
